UNKNOWN                 
1 85106U          26066.58989449  .00000818  00000+0  93825-3 0  9992
2 85106 100.0526 176.6220 0010787 155.3520 220.9510 13.73028914614710
UNKNOWN                 
1 85151U          26066.43967755  .00035268  00000+0  43236-2 0  9999
2 85151  98.3991 299.4805 0006537 234.9654 125.0945 14.83007447492067
UNKNOWN                 
1 85210U          26064.89257132  .00000329  00000+0  35085-3 0  9998
2 85210  99.8615 213.1738 0216849 101.9762  49.0334 13.71668276613557
UNKNOWN                 
1 85217U          26064.69888099  .00004105  00000+0  10814-2 0  9993
2 85217  98.0230 158.6754 0206229 237.2697 120.8464 14.37620653639774
UNKNOWN                 
1 85237U          26054.35491965  .00013478  00000+0  26977-2 0  9999
2 85237  65.5338  24.2147 0516167 354.4749   5.0755 14.01835433618525
UNKNOWN                 
1 85238U          26063.76590476  .00000076  00000+0  98440-4 0  9998
2 85238  99.0683 355.6270 0063087 339.7960  49.2011 13.88359787622222
UNKNOWN                 
1 85246U          26066.43321694  .00002923  00000+0  10435-2 0  9997
2 85246  97.9910  67.0040 0223680  54.3402 307.8378 14.21778105635105
UNKNOWN                 
1 85373U          26066.37140312  .00002812  00000+0  19130-2 0  9995
2 85373 100.4232 119.1843 0050241  16.7370  45.4385 14.00419611623976
UNKNOWN                 
1 87014U          26065.41512358  .00003162  00000+0  48201-2 0  9996
2 87014 100.4835  39.3452 0053690  34.5280 119.2854 13.52325093602229
UNKNOWN                 
1 87029U          26062.87882968  .00001484  00000+0  92545-3 0  9992
2 87029  98.7477 100.2460 0081356  23.6181 336.8689 14.04698837604392
UNKNOWN                 
1 87042U          26065.58029463  .00000733  00000+0  45797-3 0  9994
2 87042  98.7028 110.7446 0043131 216.9306 142.8892 14.07270112565756
UNKNOWN                 
1 87051U          26066.37815862  .00001883  00000+0  68071-3 0  9995
2 87051  65.7286  52.5137 0708739 102.5460 265.5753 13.46251448599972
