CCSDS_OMM_VERS = 2.0
CREATION_DATE  = 
ORIGINATOR     = 

OBJECT_NAME    = UNKNOWN
OBJECT_ID      = 
CENTER_NAME    = EARTH
REF_FRAME      = TEME
TIME_SYSTEM    = UTC
MEAN_ELEMENT_THEORY = SGP/SGP4

EPOCH          = 2026-03-07T14:09:26.883936
MEAN_MOTION    = 13.73028914
ECCENTRICITY   = .0010787
INCLINATION    = 100.0526
RA_OF_ASC_NODE = 176.6220
ARG_OF_PERICENTER = 155.3520
MEAN_ANOMALY   = 220.9510

EPHEMERIS_TYPE = 0
CLASSIFICATION_TYPE = U
NORAD_CAT_ID   = 85106
ELEMENT_SET_NO = 999
REV_AT_EPOCH   = 61471
BSTAR          = .93825E-3
MEAN_MOTION_DOT = .818E-5
MEAN_MOTION_DDOT = 0

CCSDS_OMM_VERS = 2.0
CREATION_DATE  = 
ORIGINATOR     = 

OBJECT_NAME    = UNKNOWN
OBJECT_ID      = 
CENTER_NAME    = EARTH
REF_FRAME      = TEME
TIME_SYSTEM    = UTC
MEAN_ELEMENT_THEORY = SGP/SGP4

EPOCH          = 2026-03-07T10:33:08.140320
MEAN_MOTION    = 14.83007447
ECCENTRICITY   = .0006537
INCLINATION    = 98.3991
RA_OF_ASC_NODE = 299.4805
ARG_OF_PERICENTER = 234.9654
MEAN_ANOMALY   = 125.0945

EPHEMERIS_TYPE = 0
CLASSIFICATION_TYPE = U
NORAD_CAT_ID   = 85151
ELEMENT_SET_NO = 999
REV_AT_EPOCH   = 49206
BSTAR          = .43236E-2
MEAN_MOTION_DOT = .35268E-3
MEAN_MOTION_DDOT = 0

CCSDS_OMM_VERS = 2.0
CREATION_DATE  = 
ORIGINATOR     = 

OBJECT_NAME    = UNKNOWN
OBJECT_ID      = 
CENTER_NAME    = EARTH
REF_FRAME      = TEME
TIME_SYSTEM    = UTC
MEAN_ELEMENT_THEORY = SGP/SGP4

EPOCH          = 2026-03-05T21:25:18.162048
MEAN_MOTION    = 13.71668276
ECCENTRICITY   = .0216849
INCLINATION    = 99.8615
RA_OF_ASC_NODE = 213.1738
ARG_OF_PERICENTER = 101.9762
MEAN_ANOMALY   = 49.0334

EPHEMERIS_TYPE = 0
CLASSIFICATION_TYPE = U
NORAD_CAT_ID   = 85210
ELEMENT_SET_NO = 999
REV_AT_EPOCH   = 61355
BSTAR          = .35085E-3
MEAN_MOTION_DOT = .329E-5
MEAN_MOTION_DDOT = 0

CCSDS_OMM_VERS = 2.0
CREATION_DATE  = 
ORIGINATOR     = 

OBJECT_NAME    = UNKNOWN
OBJECT_ID      = 
CENTER_NAME    = EARTH
REF_FRAME      = TEME
TIME_SYSTEM    = UTC
MEAN_ELEMENT_THEORY = SGP/SGP4

EPOCH          = 2026-03-05T16:46:23.317536
MEAN_MOTION    = 14.37620653
ECCENTRICITY   = .0206229
INCLINATION    = 98.0230
RA_OF_ASC_NODE = 158.6754
ARG_OF_PERICENTER = 237.2697
MEAN_ANOMALY   = 120.8464

EPHEMERIS_TYPE = 0
CLASSIFICATION_TYPE = U
NORAD_CAT_ID   = 85217
ELEMENT_SET_NO = 999
REV_AT_EPOCH   = 63977
BSTAR          = .10814E-2
MEAN_MOTION_DOT = .4105E-4
MEAN_MOTION_DDOT = 0

CCSDS_OMM_VERS = 2.0
CREATION_DATE  = 
ORIGINATOR     = 

OBJECT_NAME    = UNKNOWN
OBJECT_ID      = 
CENTER_NAME    = EARTH
REF_FRAME      = TEME
TIME_SYSTEM    = UTC
MEAN_ELEMENT_THEORY = SGP/SGP4

EPOCH          = 2026-02-23T08:31:05.057760
MEAN_MOTION    = 14.01835433
ECCENTRICITY   = .0516167
INCLINATION    = 65.5338
RA_OF_ASC_NODE = 24.2147
ARG_OF_PERICENTER = 354.4749
MEAN_ANOMALY   = 5.0755

EPHEMERIS_TYPE = 0
CLASSIFICATION_TYPE = U
NORAD_CAT_ID   = 85237
ELEMENT_SET_NO = 999
REV_AT_EPOCH   = 61852
BSTAR          = .26977E-2
MEAN_MOTION_DOT = .13478E-3
MEAN_MOTION_DDOT = 0

CCSDS_OMM_VERS = 2.0
CREATION_DATE  = 
ORIGINATOR     = 

OBJECT_NAME    = UNKNOWN
OBJECT_ID      = 
CENTER_NAME    = EARTH
REF_FRAME      = TEME
TIME_SYSTEM    = UTC
MEAN_ELEMENT_THEORY = SGP/SGP4

EPOCH          = 2026-03-04T18:22:54.171264
MEAN_MOTION    = 13.88359787
ECCENTRICITY   = .0063087
INCLINATION    = 99.0683
RA_OF_ASC_NODE = 355.6270
ARG_OF_PERICENTER = 339.7960
MEAN_ANOMALY   = 49.2011

EPHEMERIS_TYPE = 0
CLASSIFICATION_TYPE = U
NORAD_CAT_ID   = 85238
ELEMENT_SET_NO = 999
REV_AT_EPOCH   = 62222
BSTAR          = .9844E-4
MEAN_MOTION_DOT = .76E-6
MEAN_MOTION_DDOT = 0

CCSDS_OMM_VERS = 2.0
CREATION_DATE  = 
ORIGINATOR     = 

OBJECT_NAME    = UNKNOWN
OBJECT_ID      = 
CENTER_NAME    = EARTH
REF_FRAME      = TEME
TIME_SYSTEM    = UTC
MEAN_ELEMENT_THEORY = SGP/SGP4

EPOCH          = 2026-03-07T10:23:49.943616
MEAN_MOTION    = 14.21778105
ECCENTRICITY   = .022368
INCLINATION    = 97.9910
RA_OF_ASC_NODE = 67.0040
ARG_OF_PERICENTER = 54.3402
MEAN_ANOMALY   = 307.8378

EPHEMERIS_TYPE = 0
CLASSIFICATION_TYPE = U
NORAD_CAT_ID   = 85246
ELEMENT_SET_NO = 999
REV_AT_EPOCH   = 63510
BSTAR          = .10435E-2
MEAN_MOTION_DOT = .2923E-4
MEAN_MOTION_DDOT = 0

CCSDS_OMM_VERS = 2.0
CREATION_DATE  = 
ORIGINATOR     = 

OBJECT_NAME    = UNKNOWN
OBJECT_ID      = 
CENTER_NAME    = EARTH
REF_FRAME      = TEME
TIME_SYSTEM    = UTC
MEAN_ELEMENT_THEORY = SGP/SGP4

EPOCH          = 2026-03-07T08:54:49.229568
MEAN_MOTION    = 14.00419611
ECCENTRICITY   = .0050241
INCLINATION    = 100.4232
RA_OF_ASC_NODE = 119.1843
ARG_OF_PERICENTER = 16.7370
MEAN_ANOMALY   = 45.4385

EPHEMERIS_TYPE = 0
CLASSIFICATION_TYPE = U
NORAD_CAT_ID   = 85373
ELEMENT_SET_NO = 999
REV_AT_EPOCH   = 62397
BSTAR          = .1913E-2
MEAN_MOTION_DOT = .2812E-4
MEAN_MOTION_DDOT = 0

CCSDS_OMM_VERS = 2.0
CREATION_DATE  = 
ORIGINATOR     = 

OBJECT_NAME    = UNKNOWN
OBJECT_ID      = 
CENTER_NAME    = EARTH
REF_FRAME      = TEME
TIME_SYSTEM    = UTC
MEAN_ELEMENT_THEORY = SGP/SGP4

EPOCH          = 2026-03-06T09:57:46.677312
MEAN_MOTION    = 13.52325093
ECCENTRICITY   = .005369
INCLINATION    = 100.4835
RA_OF_ASC_NODE = 39.3452
ARG_OF_PERICENTER = 34.5280
MEAN_ANOMALY   = 119.2854

EPHEMERIS_TYPE = 0
CLASSIFICATION_TYPE = U
NORAD_CAT_ID   = 87014
ELEMENT_SET_NO = 999
REV_AT_EPOCH   = 60222
BSTAR          = .48201E-2
MEAN_MOTION_DOT = .3162E-4
MEAN_MOTION_DDOT = 0

CCSDS_OMM_VERS = 2.0
CREATION_DATE  = 
ORIGINATOR     = 

OBJECT_NAME    = UNKNOWN
OBJECT_ID      = 
CENTER_NAME    = EARTH
REF_FRAME      = TEME
TIME_SYSTEM    = UTC
MEAN_ELEMENT_THEORY = SGP/SGP4

EPOCH          = 2026-03-03T21:05:30.884352
MEAN_MOTION    = 14.04698837
ECCENTRICITY   = .0081356
INCLINATION    = 98.7477
RA_OF_ASC_NODE = 100.2460
ARG_OF_PERICENTER = 23.6181
MEAN_ANOMALY   = 336.8689

EPHEMERIS_TYPE = 0
CLASSIFICATION_TYPE = U
NORAD_CAT_ID   = 87029
ELEMENT_SET_NO = 999
REV_AT_EPOCH   = 60439
BSTAR          = .92545E-3
MEAN_MOTION_DOT = .1484E-4
MEAN_MOTION_DDOT = 0

CCSDS_OMM_VERS = 2.0
CREATION_DATE  = 
ORIGINATOR     = 

OBJECT_NAME    = UNKNOWN
OBJECT_ID      = 
CENTER_NAME    = EARTH
REF_FRAME      = TEME
TIME_SYSTEM    = UTC
MEAN_ELEMENT_THEORY = SGP/SGP4

EPOCH          = 2026-03-06T13:55:37.456032
MEAN_MOTION    = 14.07270112
ECCENTRICITY   = .0043131
INCLINATION    = 98.7028
RA_OF_ASC_NODE = 110.7446
ARG_OF_PERICENTER = 216.9306
MEAN_ANOMALY   = 142.8892

EPHEMERIS_TYPE = 0
CLASSIFICATION_TYPE = U
NORAD_CAT_ID   = 87042
ELEMENT_SET_NO = 999
REV_AT_EPOCH   = 56575
BSTAR          = .45797E-3
MEAN_MOTION_DOT = .733E-5
MEAN_MOTION_DDOT = 0

CCSDS_OMM_VERS = 2.0
CREATION_DATE  = 
ORIGINATOR     = 

OBJECT_NAME    = UNKNOWN
OBJECT_ID      = 
CENTER_NAME    = EARTH
REF_FRAME      = TEME
TIME_SYSTEM    = UTC
MEAN_ELEMENT_THEORY = SGP/SGP4

EPOCH          = 2026-03-07T09:04:32.904768
MEAN_MOTION    = 13.46251448
ECCENTRICITY   = .0708739
INCLINATION    = 65.7286
RA_OF_ASC_NODE = 52.5137
ARG_OF_PERICENTER = 102.5460
MEAN_ANOMALY   = 265.5753

EPHEMERIS_TYPE = 0
CLASSIFICATION_TYPE = U
NORAD_CAT_ID   = 87051
ELEMENT_SET_NO = 999
REV_AT_EPOCH   = 59997
BSTAR          = .68071E-3
MEAN_MOTION_DOT = .1883E-4
MEAN_MOTION_DDOT = 0

